DEMO8 (TENZING)         
1 48951U 21059CA  26169.78569705  .00016374  00000+0  24514-3 0  9994
2 48951  97.7023   3.3260 0006029 349.4306  10.6819 15.55044395277559
HAWK-3A                 
1 48957U 21059CG  26169.28008273  .00038183  00000+0  32291-3 0  9996
2 48957  97.6716   8.9829 0003460 329.5051  30.6008 15.69650937278022
SHERPA-FX2 & TAGSAT-2   
1 48958U 21059CH  26169.78888839  .00016793  00000+0  24041-3 0  9993
2 48958  97.6855   3.9125 0005561 340.4751  19.6289 15.56261507277679
NAPA-2                  
1 48963U 21059CN  26169.81931435  .00383061  66328-4  67528-3 0  9996
2 48963  97.6622   9.2486 0003481 235.3454 124.7497 16.01994671278077
SPARTAN                 
1 48964U 21059CP  26169.08987258  .00078405  00000+0  41969-3 0  9994
2 48964  97.6746   9.7589 0000937 241.0627 119.0546 15.80107923278077
ONEWEB-0249             
1 48967U 21060A   26169.42083512  .00000010  00000+0 -82345-5 0  9990
2 48967  87.9096 228.5333 0002081 101.0103 259.1262 13.16595700239770
ONEWEB-0250             
1 48968U 21060B   26169.59048854  .00000046  00000+0  74449-4 0  9992
2 48968  87.9096 226.2512 0002850 112.4966 247.6472 13.25834043240405
ONEWEB-0252             
1 48970U 21060D   26169.67970686  .00000042  00000+0  76302-4 0  9997
2 48970  87.9096 228.4738 0001899  92.7949 267.3399 13.16593529239850
ONEWEB-0253             
1 48971U 21060E   26169.66862389 -.00000041  00000+0 -14166-3 0  9997
2 48971  87.9097 228.4817 0002088 101.2822 258.8543 13.16593996239783
ONEWEB-0254             
1 48972U 21060F   26169.67812316  .00000094  00000+0  21213-3 0  9991
2 48972  87.9097 228.4772 0001936 106.8146 253.3197 13.16594689239780
ONEWEB-0255             
1 48973U 21060G   26169.71612184 -.00000110  00000+0 -32081-3 0  9994
2 48973  87.9099 228.4764 0001921 102.0085 258.1261 13.16595071239868
ONEWEB-0256             
1 48974U 21060H   26169.59024625 -.00000104  00000+0 -30575-3 0  9997
2 48974  87.9090 228.5057 0002086  94.6789 265.4580 13.16593883239815
ONEWEB-0257             
1 48975U 21060J   26169.69870168 -.00000024  00000+0 -96184-4 0  9990
2 48975  87.9099 228.4710 0001874  98.3718 261.7625 13.16594430239781
ONEWEB-0258             
1 48976U 21060K   26169.85228131  .00000038  00000+0  64765-4 0  9999
2 48976  87.9096 228.4526 0002085  99.0827 261.0539 13.16595036239812
ONEWEB-0259             
1 48977U 21060L   26169.69395610 -.00000006  00000+0 -50385-4 0  9999
2 48977  87.9096 228.4831 0002052 103.2026 256.9333 13.16594771239826
ONEWEB-0260             
1 48978U 21060M   26169.68524278  .00000048  00000+0  90978-4 0  9999
2 48978  87.9091 228.4865 0001930  86.4010 273.7341 13.16593926239803
ONEWEB-0261             
1 48979U 21060N   26169.42715416 -.00000173  00000+0 -48674-3 0  9994
2 48979  87.9094 228.5378 0001758 100.3557 259.7772 13.16593588239825
ONEWEB-0262             
1 48980U 21060P   26169.71137006 -.00000007  00000+0 -52406-4 0  9996
2 48980  87.9099 228.4672 0002121 105.8574 254.2791 13.16594700239820
ONEWEB-0263             
1 48981U 21060Q   26169.59103969  .00000048  00000+0  91526-4 0  9993
2 48981  87.9095 228.5029 0001786 104.3564 255.7765 13.16594567239775
ONEWEB-0264             
1 48982U 21060R   26169.85624071  .00000072  00000+0  15600-3 0  9990
2 48982  87.9097 228.4533 0001823  94.5186 265.6153 13.16594970239813
ONEWEB-0266             
1 48984U 21060T   26169.42163343 -.00000048  00000+0 -15998-3 0  9990
2 48984  87.9098 228.5299 0002154  98.2785 261.8591 13.16594128239741
ONEWEB-0267             
1 48985U 21060U   26169.43271505 -.00000504  00000+0 -13527-2 0  9994
2 48985  87.9097 228.5245 0002055  96.9352 263.2013 13.16597567239753
ONEWEB-0268             
1 48986U 21060V   26169.85701344  .00000017  00000+0  11986-4 0  9996
2 48986  87.9100 228.4500 0002053  94.1624 265.9741 13.16596304240074
ONEWEB-0269             
1 48987U 21060W   26169.68603822  .00000019  00000+0  16710-4 0  9992
2 48987  87.9087 228.4862 0002161  92.5205 267.6174 13.16594079239824
ONEWEB-0270             
1 48988U 21060X   26169.85544961  .00000043  00000+0  78447-4 0  9992
2 48988  87.9100 228.4521 0001882 107.7373 252.3963 13.16594634239887
ONEWEB-0271             
1 48989U 21060Y   26169.69078957  .00000074  00000+0  15959-3 0  9994
2 48989  87.9096 228.4745 0001830 101.8083 258.3253 13.16594615239861
ONEWEB-0272             
1 48990U 21060Z   26169.71294794  .00000001  00000+0 -29824-4 0  9996
2 48990  87.9096 228.4821 0001826  91.3441 268.7899 13.16592645239811
ONEWEB-0273             
1 48991U 21060AA  26169.43113111  .00000020  00000+0  19456-4 0  9999
2 48991  87.9098 228.5372 0001962 100.8464 259.2888 13.16594544239754
ONEWEB-0274             
1 48992U 21060AB  26169.68445047  .00000049  00000+0  95834-4 0  9998
2 48992  87.9089 228.4893 0001896  89.4287 270.7061 13.16593914239822
ONEWEB-0275             
1 48993U 21060AC  26169.67337645  .00000039  00000+0  69009-4 0  9996
2 48993  87.9096 228.4806 0001943  96.4482 263.6871 13.16594322239759
