OBJECT_NAME,OBJECT_ID,EPOCH,MEAN_MOTION,ECCENTRICITY,INCLINATION,RA_OF_ASC_NODE,ARG_OF_PERICENTER,MEAN_ANOMALY,EPHEMERIS_TYPE,CLASSIFICATION_TYPE,NORAD_CAT_ID,ELEMENT_SET_NO,REV_AT_EPOCH,BSTAR,MEAN_MOTION_DOT,MEAN_MOTION_DDOT
DEMO8 (TENZING),2021-059CA,2026-06-18T18:51:24.225120,15.55044395,.0006029,97.7023,3.3260,349.4306,10.6819,0,U,48951,999,27755,.24514E-3,.16374E-3,0
HAWK-3A,2021-059CG,2026-06-18T06:43:19.147872,15.69650937,.000346,97.6716,8.9829,329.5051,30.6008,0,U,48957,999,27802,.32291E-3,.38183E-3,0
SHERPA-FX2 & TAGSAT-2,2021-059CH,2026-06-18T18:55:59.956896,15.56261507,.0005561,97.6855,3.9125,340.4751,19.6289,0,U,48958,999,27767,.24041E-3,.16793E-3,0
NAPA-2,2021-059CN,2026-06-18T19:39:48.759840,16.01994671,.0003481,97.6622,9.2486,235.3454,124.7497,0,U,48963,999,27807,.67528E-3,.383061E-2,.66328E-4
SPARTAN,2021-059CP,2026-06-18T02:09:24.990912,15.80107923,.0000937,97.6746,9.7589,241.0627,119.0546,0,U,48964,999,27807,.41969E-3,.78405E-3,0
ONEWEB-0249,2021-060A,2026-06-18T10:06:00.154368,13.16595700,.0002081,87.9096,228.5333,101.0103,259.1262,0,U,48967,999,23977,-.82345E-5,.1E-6,0
ONEWEB-0250,2021-060B,2026-06-18T14:10:18.209856,13.25834043,.000285,87.9096,226.2512,112.4966,247.6472,0,U,48968,999,24040,.74449E-4,.46E-6,0
ONEWEB-0252,2021-060D,2026-06-18T16:18:46.672704,13.16593529,.0001899,87.9096,228.4738,92.7949,267.3399,0,U,48970,999,23985,.76302E-4,.42E-6,0
ONEWEB-0253,2021-060E,2026-06-18T16:02:49.104096,13.16593996,.0002088,87.9097,228.4817,101.2822,258.8543,0,U,48971,999,23978,-.14166E-3,-.41E-6,0
ONEWEB-0254,2021-060F,2026-06-18T16:16:29.841024,13.16594689,.0001936,87.9097,228.4772,106.8146,253.3197,0,U,48972,999,23978,.21213E-3,.94E-6,0
ONEWEB-0255,2021-060G,2026-06-18T17:11:12.926976,13.16595071,.0001921,87.9099,228.4764,102.0085,258.1261,0,U,48973,999,23986,-.32081E-3,-.11E-5,0
ONEWEB-0256,2021-060H,2026-06-18T14:09:57.276000,13.16593883,.0002086,87.9090,228.5057,94.6789,265.4580,0,U,48974,999,23981,-.30575E-3,-.104E-5,0
ONEWEB-0257,2021-060J,2026-06-18T16:46:07.825152,13.16594430,.0001874,87.9099,228.4710,98.3718,261.7625,0,U,48975,999,23978,-.96184E-4,-.24E-6,0
ONEWEB-0258,2021-060K,2026-06-18T20:27:17.105184,13.16595036,.0002085,87.9096,228.4526,99.0827,261.0539,0,U,48976,999,23981,.64765E-4,.38E-6,0
ONEWEB-0259,2021-060L,2026-06-18T16:39:17.807040,13.16594771,.0002052,87.9096,228.4831,103.2026,256.9333,0,U,48977,999,23982,-.50385E-4,-.6E-7,0
ONEWEB-0260,2021-060M,2026-06-18T16:26:44.976192,13.16593926,.000193,87.9091,228.4865,86.4010,273.7341,0,U,48978,999,23980,.90978E-4,.48E-6,0
ONEWEB-0261,2021-060N,2026-06-18T10:15:06.119424,13.16593588,.0001758,87.9094,228.5378,100.3557,259.7772,0,U,48979,999,23982,-.48674E-3,-.173E-5,0
ONEWEB-0262,2021-060P,2026-06-18T17:04:22.373184,13.16594700,.0002121,87.9099,228.4672,105.8574,254.2791,0,U,48980,999,23982,-.52406E-4,-.7E-7,0
ONEWEB-0263,2021-060Q,2026-06-18T14:11:05.829216,13.16594567,.0001786,87.9095,228.5029,104.3564,255.7765,0,U,48981,999,23977,.91526E-4,.48E-6,0
ONEWEB-0264,2021-060R,2026-06-18T20:32:59.197344,13.16594970,.0001823,87.9097,228.4533,94.5186,265.6153,0,U,48982,999,23981,.156E-3,.72E-6,0
ONEWEB-0266,2021-060T,2026-06-18T10:07:09.128352,13.16594128,.0002154,87.9098,228.5299,98.2785,261.8591,0,U,48984,999,23974,-.15998E-3,-.48E-6,0
ONEWEB-0267,2021-060U,2026-06-18T10:23:06.580320,13.16597567,.0002055,87.9097,228.5245,96.9352,263.2013,0,U,48985,999,23975,-.13527E-2,-.504E-5,0
ONEWEB-0268,2021-060V,2026-06-18T20:34:05.961216,13.16596304,.0002053,87.9100,228.4500,94.1624,265.9741,0,U,48986,999,24007,.11986E-4,.17E-6,0
ONEWEB-0269,2021-060W,2026-06-18T16:27:53.702208,13.16594079,.0002161,87.9087,228.4862,92.5205,267.6174,0,U,48987,999,23982,.1671E-4,.19E-6,0
ONEWEB-0270,2021-060X,2026-06-18T20:31:50.846304,13.16594634,.0001882,87.9100,228.4521,107.7373,252.3963,0,U,48988,999,23988,.78447E-4,.43E-6,0
ONEWEB-0271,2021-060Y,2026-06-18T16:34:44.218848,13.16594615,.000183,87.9096,228.4745,101.8083,258.3253,0,U,48989,999,23986,.15959E-3,.74E-6,0
ONEWEB-0272,2021-060Z,2026-06-18T17:06:38.702016,13.16592645,.0001826,87.9096,228.4821,91.3441,268.7899,0,U,48990,999,23981,-.29824E-4,.1E-7,0
ONEWEB-0273,2021-060AA,2026-06-18T10:20:49.727904,13.16594544,.0001962,87.9098,228.5372,100.8464,259.2888,0,U,48991,999,23975,.19456E-4,.2E-6,0
ONEWEB-0274,2021-060AB,2026-06-18T16:25:36.520608,13.16593914,.0001896,87.9089,228.4893,89.4287,270.7061,0,U,48992,999,23982,.95834E-4,.49E-6,0
ONEWEB-0275,2021-060AC,2026-06-18T16:09:39.725280,13.16594322,.0001943,87.9096,228.4806,96.4482,263.6871,0,U,48993,999,23975,.69009E-4,.39E-6,0
